start=new Date('2023-06-15T00:00:00.000Z').valueOf();
sats=[{"TIME_SYSTEM":"UTC","OBJECT_NAME":"STARLINK-5565","PERIAPSIS":"569.540","RA_OF_ASC_NODE":"244.6795","SITE":"AFWTR","REF_FRAME":"TEME","EPHEMERIS_TYPE":"0","ELEMENT_SET_NO":"999","CLASSIFICATION_TYPE":"U","LAUNCH_DATE":"2023-03-03","OBJECT_TYPE":"PAYLOAD","INCLINATION":"69.9991","DECAY_DATE":null,"GP_ID":"233917230","OBJECT_ID":"2023-028E","CENTER_NAME":"EARTH","TLE_LINE1":"1 55745U 23028E   23165.21441134 -.00000434  00000-0 -28599-4 0  9998","PERIOD":"96.107","MEAN_ANOMALY":"90.3116","MEAN_MOTION_DDOT":"0.0000000000000","BSTAR":"-0.00002859900000","ECCENTRICITY":"0.00036230","MEAN_MOTION_DOT":"-0.00000434","SEMIMAJOR_AXIS":"6950.193","TLE_LINE2":"2 55745  69.9991 244.6795 0003623 269.7627  90.3116 14.98330001 16322","MEAN_ELEMENT_THEORY":"SGP4","RCS_SIZE":"LARGE","NORAD_CAT_ID":"55745","REV_AT_EPOCH":"1632","COUNTRY_CODE":"US","MEAN_MOTION":"14.98330001","APOAPSIS":"574.576","FILE":"3932965","ARG_OF_PERICENTER":"269.7627","EPOCH":"2023-06-14T05:08:45.139776"},{"REF_FRAME":"TEME","EPHEMERIS_TYPE":"0","CLASSIFICATION_TYPE":"U","ELEMENT_SET_NO":"999","LAUNCH_DATE":"2023-03-03","OBJECT_TYPE":"PAYLOAD","INCLINATION":"70.0005","TIME_SYSTEM":"UTC","OBJECT_NAME":"STARLINK-5579","PERIAPSIS":"569.717","SITE":"AFWTR","RA_OF_ASC_NODE":"244.3856","DECAY_DATE":null,"OBJECT_ID":"2023-028F","GP_ID":"233917977","CENTER_NAME":"EARTH","TLE_LINE1":"1 55746U 23028F   23165.24360269 -.00000212  00000-0 -99462-5 0  9993","PERIOD":"96.107","BSTAR":"-0.00000994620000","ECCENTRICITY":"0.00033560","MEAN_MOTION_DOT":"-0.00000212","SEMIMAJOR_AXIS":"6950.185","TLE_LINE2":"2 55746  70.0005 244.3856 0003356 271.5957  88.4818 14.98332633 16338","MEAN_ELEMENT_THEORY":"SGP4","MEAN_ANOMALY":"88.4818","MEAN_MOTION_DDOT":"0.0000000000000","COUNTRY_CODE":"US","MEAN_MOTION":"14.98332633","APOAPSIS":"574.382","FILE":"3932965","ARG_OF_PERICENTER":"271.5957","EPOCH":"2023-06-14T05:50:47.272416","NORAD_CAT_ID":"55746","RCS_SIZE":"LARGE","REV_AT_EPOCH":"1633"},{"PERIAPSIS":"569.548","OBJECT_NAME":"STARLINK-5539","TIME_SYSTEM":"UTC","RA_OF_ASC_NODE":"244.6098","SITE":"AFWTR","EPHEMERIS_TYPE":"0","REF_FRAME":"TEME","OBJECT_TYPE":"PAYLOAD","LAUNCH_DATE":"2023-03-03","INCLINATION":"69.9995","ELEMENT_SET_NO":"999","CLASSIFICATION_TYPE":"U","CENTER_NAME":"EARTH","OBJECT_ID":"2023-028G","GP_ID":"233916229","DECAY_DATE":null,"PERIOD":"96.107","TLE_LINE1":"1 55747U 23028G   23165.19354029 -.00000218  00000-0 -10467-4 0  9998","MEAN_MOTION_DDOT":"0.0000000000000","MEAN_ANOMALY":"90.2265","ECCENTRICITY":"0.00036090","BSTAR":"-0.00001046700000","MEAN_ELEMENT_THEORY":"SGP4","TLE_LINE2":"2 55747  69.9995 244.6098 0003609 269.8481  90.2265 14.98330575 16327","SEMIMAJOR_AXIS":"6950.191","MEAN_MOTION_DOT":"-0.00000218","REV_AT_EPOCH":"1632","RCS_SIZE":"LARGE","NORAD_CAT_ID":"55747","FILE":"3932965","APOAPSIS":"574.564","MEAN_MOTION":"14.98330575","COUNTRY_CODE":"US","EPOCH":"2023-06-14T04:38:41.881056","ARG_OF_PERICENTER":"269.8481"},{"MEAN_MOTION_DDOT":"0.0000000000000","MEAN_ANOMALY":"91.9373","ECCENTRICITY":"0.00035760","BSTAR":"0.00002066800000","MEAN_ELEMENT_THEORY":"SGP4","TLE_LINE2":"2 55748  69.9998 244.5950 0003576 268.1377  91.9373 14.98332349 16325","SEMIMAJOR_AXIS":"6950.186","MEAN_MOTION_DOT":"0.00000154","REV_AT_EPOCH":"1632","RCS_SIZE":"LARGE","NORAD_CAT_ID":"55748","APOAPSIS":"574.536","FILE":"3932965","MEAN_MOTION":"14.98332349","COUNTRY_CODE":"US","EPOCH":"2023-06-14T04:32:41.054784","ARG_OF_PERICENTER":"268.1377","PERIAPSIS":"569.565","OBJECT_NAME":"STARLINK-5580","TIME_SYSTEM":"UTC","SITE":"AFWTR","RA_OF_ASC_NODE":"244.5950","EPHEMERIS_TYPE":"0","REF_FRAME":"TEME","LAUNCH_DATE":"2023-03-03","INCLINATION":"69.9998","OBJECT_TYPE":"PAYLOAD","ELEMENT_SET_NO":"999","CLASSIFICATION_TYPE":"U","CENTER_NAME":"EARTH","GP_ID":"233916479","OBJECT_ID":"2023-028H","DECAY_DATE":null,"PERIOD":"96.107","TLE_LINE1":"1 55748U 23028H   23165.18936406  .00000154  00000-0  20668-4 0  9994"},{"COUNTRY_CODE":"US","MEAN_MOTION":"14.98333163","FILE":"3932965","APOAPSIS":"574.407","ARG_OF_PERICENTER":"269.3678","EPOCH":"2023-06-14T04:08:52.778976","NORAD_CAT_ID":"55749","RCS_SIZE":"LARGE","REV_AT_EPOCH":"1632","BSTAR":"0.00004528700000","ECCENTRICITY":"0.00033940","MEAN_MOTION_DOT":"0.00000447","SEMIMAJOR_AXIS":"6950.183","TLE_LINE2":"2 55749  69.9998 244.5355 0003394 269.3678  90.7092 14.98333163 16320","MEAN_ELEMENT_THEORY":"SGP4","MEAN_ANOMALY":"90.7092","MEAN_MOTION_DDOT":"0.0000000000000","DECAY_DATE":null,"GP_ID":"233917730","OBJECT_ID":"2023-028J","CENTER_NAME":"EARTH","TLE_LINE1":"1 55749U 23028J   23165.17283309  .00000447  00000-0  45287-4 0  9990","PERIOD":"96.107","REF_FRAME":"TEME","EPHEMERIS_TYPE":"0","CLASSIFICATION_TYPE":"U","ELEMENT_SET_NO":"999","INCLINATION":"69.9998","LAUNCH_DATE":"2023-03-03","OBJECT_TYPE":"PAYLOAD","TIME_SYSTEM":"UTC","OBJECT_NAME":"STARLINK-5560","PERIAPSIS":"569.689","RA_OF_ASC_NODE":"244.5355","SITE":"AFWTR"},{"BSTAR":"0.00000069853000","ECCENTRICITY":"0.00034670","MEAN_MOTION_DOT":"-0.00000085","SEMIMAJOR_AXIS":"6950.197","TLE_LINE2":"2 55750  70.0002 245.9276 0003467 266.9830  93.0932 14.98328693 16244","MEAN_ELEMENT_THEORY":"SGP4","MEAN_ANOMALY":"93.0932","MEAN_MOTION_DDOT":"0.0000000000000","COUNTRY_CODE":"US","MEAN_MOTION":"14.98328693","FILE":"3932965","APOAPSIS":"574.472","ARG_OF_PERICENTER":"266.9830","EPOCH":"2023-06-13T15:37:36.186528","RCS_SIZE":"LARGE","NORAD_CAT_ID":"55750","REV_AT_EPOCH":"1624","REF_FRAME":"TEME","EPHEMERIS_TYPE":"0","ELEMENT_SET_NO":"999","CLASSIFICATION_TYPE":"U","OBJECT_TYPE":"PAYLOAD","LAUNCH_DATE":"2023-03-03","INCLINATION":"70.0002","TIME_SYSTEM":"UTC","OBJECT_NAME":"STARLINK-5573","PERIAPSIS":"569.652","SITE":"AFWTR","RA_OF_ASC_NODE":"245.9276","DECAY_DATE":null,"GP_ID":"233917478","OBJECT_ID":"2023-028K","CENTER_NAME":"EARTH","TLE_LINE1":"1 55750U 23028K   23164.65111327 -.00000085  00000-0  69853-6 0  9990","PERIOD":"96.107"},{"COUNTRY_CODE":"US","FILE":"3932965","APOAPSIS":"574.115","MEAN_MOTION":"14.98334008","EPOCH":"2023-06-14T04:44:42.346176","ARG_OF_PERICENTER":"263.7972","RCS_SIZE":"LARGE","NORAD_CAT_ID":"55751","REV_AT_EPOCH":"1632","ECCENTRICITY":"0.00029780","BSTAR":"-0.00002655000000","SEMIMAJOR_AXIS":"6950.180","MEAN_MOTION_DOT":"-0.00000410","MEAN_ELEMENT_THEORY":"SGP4","TLE_LINE2":"2 55751  70.0002 244.6250 0002978 263.7972  96.2848 14.98334008 16328","MEAN_ANOMALY":"96.2848","MEAN_MOTION_DDOT":"0.0000000000000","DECAY_DATE":null,"CENTER_NAME":"EARTH","GP_ID":"233916729","OBJECT_ID":"2023-028L","TLE_LINE1":"1 55751U 23028L   23165.19771234 -.00000410  00000-0 -26550-4 0  9998","PERIOD":"96.107","REF_FRAME":"TEME","EPHEMERIS_TYPE":"0","CLASSIFICATION_TYPE":"U","ELEMENT_SET_NO":"999","INCLINATION":"70.0002","LAUNCH_DATE":"2023-03-03","OBJECT_TYPE":"PAYLOAD","OBJECT_NAME":"STARLINK-5577","TIME_SYSTEM":"UTC","PERIAPSIS":"569.976","RA_OF_ASC_NODE":"244.6250","SITE":"AFWTR"},{"MEAN_ANOMALY":"90.7756","MEAN_MOTION_DDOT":"0.0000000000000","ECCENTRICITY":"0.00036240","BSTAR":"0.00004507900000","SEMIMAJOR_AXIS":"6950.195","MEAN_MOTION_DOT":"0.00000445","MEAN_ELEMENT_THEORY":"SGP4","TLE_LINE2":"2 55752  69.9996 244.3211 0003624 269.2988  90.7756 14.98329443 16334","RCS_SIZE":"LARGE","NORAD_CAT_ID":"55752","REV_AT_EPOCH":"1633","COUNTRY_CODE":"US","APOAPSIS":"574.578","FILE":"3932965","MEAN_MOTION":"14.98329443","EPOCH":"2023-06-14T05:26:44.668032","ARG_OF_PERICENTER":"269.2988","OBJECT_NAME":"STARLINK-5613","TIME_SYSTEM":"UTC","PERIAPSIS":"569.541","SITE":"AFWTR","RA_OF_ASC_NODE":"244.3211","REF_FRAME":"TEME","EPHEMERIS_TYPE":"0","ELEMENT_SET_NO":"999","CLASSIFICATION_TYPE":"U","OBJECT_TYPE":"PAYLOAD","LAUNCH_DATE":"2023-03-03","INCLINATION":"69.9996","DECAY_DATE":null,"CENTER_NAME":"EARTH","GP_ID":"233916979","OBJECT_ID":"2023-028M","TLE_LINE1":"1 55752U 23028M   23165.22690588  .00000445  00000-0  45079-4 0  9998","PERIOD":"96.107"},{"COUNTRY_CODE":"US","APOAPSIS":"574.432","FILE":"3932965","MEAN_MOTION":"14.98324137","EPOCH":"2023-06-13T15:31:35.620320","ARG_OF_PERICENTER":"269.0746","NORAD_CAT_ID":"55753","RCS_SIZE":"LARGE","REV_AT_EPOCH":"1624","ECCENTRICITY":"0.00033900","BSTAR":"0.00013396000000","SEMIMAJOR_AXIS":"6950.211","MEAN_MOTION_DOT":"0.00001505","MEAN_ELEMENT_THEORY":"SGP4","TLE_LINE2":"2 55753  70.0001 245.9120 0003390 269.0746  91.0024 14.98324137 16248","MEAN_ANOMALY":"91.0024","MEAN_MOTION_DDOT":"0.0000000000000","DECAY_DATE":null,"CENTER_NAME":"EARTH","OBJECT_ID":"2023-028N","GP_ID":"233917231","TLE_LINE1":"1 55753U 23028N   23164.64694005  .00001505  00000-0  13396-3 0  9996","PERIOD":"96.107","REF_FRAME":"TEME","EPHEMERIS_TYPE":"0","ELEMENT_SET_NO":"999","CLASSIFICATION_TYPE":"U","LAUNCH_DATE":"2023-03-03","OBJECT_TYPE":"PAYLOAD","INCLINATION":"70.0001","OBJECT_NAME":"STARLINK-5617","TIME_SYSTEM":"UTC","PERIAPSIS":"569.720","SITE":"AFWTR","RA_OF_ASC_NODE":"245.9120"},{"RCS_SIZE":"LARGE","NORAD_CAT_ID":"55754","REV_AT_EPOCH":"1633","COUNTRY_CODE":"US","MEAN_MOTION":"14.98321407","FILE":"3932965","APOAPSIS":"574.482","ARG_OF_PERICENTER":"268.0222","EPOCH":"2023-06-14T05:38:46.052736","MEAN_ANOMALY":"92.0542","MEAN_MOTION_DDOT":"0.0000000000000","BSTAR":"0.00023764000000","ECCENTRICITY":"0.00034490","MEAN_MOTION_DOT":"0.00002743","SEMIMAJOR_AXIS":"6950.219","TLE_LINE2":"2 55754  69.9998 244.3537 0003449 268.0222  92.0542 14.98321407 16332","MEAN_ELEMENT_THEORY":"SGP4","DECAY_DATE":null,"OBJECT_ID":"2023-028P","GP_ID":"233917978","CENTER_NAME":"EARTH","TLE_LINE1":"1 55754U 23028P   23165.23525524  .00002743  00000-0  23764-3 0  9997","PERIOD":"96.108","TIME_SYSTEM":"UTC","OBJECT_NAME":"STARLINK-5612","PERIAPSIS":"569.687","RA_OF_ASC_NODE":"244.3537","SITE":"AFWTR","REF_FRAME":"TEME","EPHEMERIS_TYPE":"0","CLASSIFICATION_TYPE":"U","ELEMENT_SET_NO":"999","LAUNCH_DATE":"2023-03-03","OBJECT_TYPE":"PAYLOAD","INCLINATION":"69.9998"}];
